Location,Latitude,Longitude,GeoCode Address,Person,Organization,Facility,Artifact
,0.0,0.0,,,,,
,0.0,0.0,,,GoogleFacts,Brooklyn Bridge Park,Picture of # Sandy
Africa Island n Lasgidi,0.0,0.0,,Gidi_Traffic,,,
,0.0,0.0,,HMS Bounty Crewmember Claudene Christian,,Ship,
,0.0,0.0,,We we,,Gym,
,0.0,0.0,,,Unique Coffee Roasters,,
,0.0,0.0,,you,,,these apps
,0.0,0.0,,,Data centres,,"cots , fuel and comfort food"
US,0.0,0.0,United States,,US government,Foreign tankers ports,
Phoenix,39.5164947,-76.616081,"Phoenix, MD 21131, USA",,,,
NYC,40.7127837,-74.0059413,"New York, NY, USA",,MurphGuide DiveBarNYC AustinsSteakAle TheStumbleInn Finnertys ThirdandLongNYC,NYC bars,
Asia,0.0,0.0,Asia,,,,
,0.0,0.0,,,NYC Wall Street,,
,0.0,0.0,,They hurricane sandy victims snooki VINNYGUADAGNINO DJPaulyD JENNIWOWW,,,23 million dollars
Baldwin,40.6686336,-73.6119129,"Baldwin, NY, USA",My grandparents,,My grandparents basement in Baldwin,
Baldwin,39.494829,-76.470242,"Baldwin, MD 21013, USA",My grandparents,,My grandparents basement in Baldwin,
Baldwin,34.4917665,-83.5373946,"Baldwin, GA, USA",My grandparents,,My grandparents basement in Baldwin,
Baldwin,30.3027384,-81.9753865,"Baldwin, FL 32234, USA",My grandparents,,My grandparents basement in Baldwin,
Baldwin,43.82333300000001,-70.724167,"Baldwin, ME, USA",My grandparents,,My grandparents basement in Baldwin,
,0.0,0.0,,Synonymous314 DVIDSHub BRUCKHEIMERJB,wwwicegov DHSgov jointbase HouseHomeland NASA RedCross,,
,0.0,0.0,,my,,a wall my basement,
,0.0,0.0,,JackLaugher i a hurricane survivor,,,
,0.0,0.0,,Misinformed Man,TheOnion,,
,0.0,0.0,,Travellers,U.S . airports,,
,0.0,0.0,,,,Somers Middle School Route 202 Route 100,Dry ice One bag
West Virginia,38.5976262,-80.4549026,"West Virginia, USA",,,,
,0.0,0.0,,lizelle_comfort You I,umiami,,
A Connecticut town,33.7628531,-84.3286961,"Connecticut Avenue Northeast, Atlanta, GA 30307, USA",,Reuters,,
A Connecticut town,33.7628531,-84.3286961,"Connecticut Avenue Northeast, Atlanta, GA 30307, USA",,Reuters,,
A Connecticut town,34.046809,-118.2717909,"Connecticut Street, Los Angeles, CA 90015, USA",,Reuters,,
A Connecticut town,34.0517,-118.3090589,"Connecticut Street, Los Angeles, CA 90006, USA",,Reuters,,
A Connecticut town,41.4530924,-72.4333437,"Town Street, East Haddam, CT 06423, USA",,Reuters,,
A Connecticut town,41.546969,-72.0922147,"Town Street, Norwich, CT 06360, USA",,Reuters,,
A Connecticut town,37.6981169,-85.874718,"Connecticut Court, Elizabethtown, KY 42701, USA",,Reuters,,
A Connecticut town,41.8863204,-73.31045329999999,"Town Street, West Cornwall, CT 06796, USA",,Reuters,,
A Connecticut town,41.5187543,-72.3399967,"Town Road, Colchester, CT 06415, USA",,Reuters,,
A Connecticut town,41.3419843,-72.18765789999999,"Town Road, Niantic, CT 06357, USA",,Reuters,,
A Connecticut town,41.5505941,-72.0923411,"East Town Street, Norwich, CT 06360, USA",,Reuters,,
A Connecticut town,41.7769207,-72.173267,"Town, Mansfield Center, CT 06250, USA",,Reuters,,
A Connecticut town,41.7869812,-72.27616379999999,"Town, Storrs, CT 06268, USA",,Reuters,,
A Connecticut town,41.4937928,-72.5467324,"Town, Higganum, CT 06441, USA",,Reuters,,
A Connecticut town,41.9116386,-72.1245817,"Town, Eastford, CT 06242, USA",,Reuters,,
A Connecticut town,41.8541925,-72.9998872,"Town Hill Road, New Hartford, CT 06057, USA",,Reuters,,
A Connecticut town,41.4699159,-72.6808017,"Town Hall, 30 Town House Road, Durham, CT 06422, USA",,Reuters,,
A Connecticut town,41.1425264,-73.249318,"Old Town Hall, 611 Old Post Road, Fairfield, CT 06824, USA",,Reuters,,
A Connecticut town,41.2366047,-73.0321131,"East Town Road, Milford, CT, USA",,Reuters,,
A Connecticut town,41.6401765,-72.21791,"West Town Street, Lebanon, CT 06249, USA",,Reuters,,
A Connecticut town,41.2214895,-73.0659149,"West Town Street, Milford, CT 06460, USA",,Reuters,,
,0.0,0.0,,LoHud,fema,,federal disaster assistance
,0.0,0.0,,folks,njdotcom,,
,0.0,0.0,,News Corp . CEO Rupert Murdoch,,,
,0.0,0.0,,Khloe Kardashian,AntiMusic,,
,0.0,0.0,,you,,,
,0.0,0.0,,Reinsurer Hiscox,,,
,0.0,0.0,,,nprnews,,
,0.0,0.0,,CHUCK SCHUMER We,,,
,0.0,0.0,,,,the 59th bridge,
NYC YouTube,40.7127837,-74.0059413,"New York, NY, USA",,,,Time  lapse video A video on YouTube
,0.0,0.0,,,HackSphereLabs FDNY Twitter 911 twitter,,
,0.0,0.0,,,BBC News BBC News,,
"Union , NJ",40.6975898,-74.26316349999999,"Union, NJ, USA",her,comcast,Cranbrook Rd,
"Union , NJ",40.6323362,-74.9639431,"Union Township, NJ, USA",her,comcast,Cranbrook Rd,
,0.0,0.0,,grandandwarren,,,
,0.0,0.0,,r3volting1,,,
,0.0,0.0,,drgurner Michael_Nutter,HuffingtonPost,,
Brazil,0.0,0.0,Brazil,Linguagroover stormbell mundikko who runs pro weather stations in Brazil We him,,,
,0.0,0.0,,Us We,HuffPostGreen,,
,0.0,0.0,,Scientists,IS_Foundation ryotnews,,
,0.0,0.0,,my,,,my # HurricaneSandy food
,0.0,0.0,,my,,my yard,
,0.0,0.0,,,TIMENewsFeed,,
,0.0,0.0,,some econometric geek,CNBC,,
the US east coast,33.9627669,-78.4165393,"East Coast Lane, Shallotte, NC 28470, USA",ant_osoba14 All my friends on the US east coast,,,
the US east coast,30.3325748,-81.3981283,"East Coast Drive, Atlantic Beach, FL 32233, USA",ant_osoba14 All my friends on the US east coast,,,
the US east coast,25.8065926,-80.1920308,"East Coast Avenue, Miami, FL 33137, USA",ant_osoba14 All my friends on the US east coast,,,
the US east coast,35.2397555,-80.9580695,"East Coast Bible College, Charlotte, NC 28214, USA",ant_osoba14 All my friends on the US east coast,,,
the US east coast,25.7063796,-80.2881719,"Progress Road, South Miami, FL 33143, USA",ant_osoba14 All my friends on the US east coast,,,
the US east coast,33.8285812,-78.6678736,"East Coast Lane, North Myrtle Beach, SC 29582, USA",ant_osoba14 All my friends on the US east coast,,,
the US east coast,26.5886897,-80.05250079999999,"East Coast Drive, Lantana, FL 33462, USA",ant_osoba14 All my friends on the US east coast,,,
the US east coast,42.55964960000001,-70.9828756,"East Coast Road, Danvers, MA 01923, USA",ant_osoba14 All my friends on the US east coast,,,
the US east coast,26.6110639,-80.0590514,"Southeast Coast Street, Lake Worth, FL 33460, USA",ant_osoba14 All my friends on the US east coast,,,
the US east coast,26.5779739,-80.054165,"Southeast Coast Avenue, Lantana, FL 33462, USA",ant_osoba14 All my friends on the US east coast,,,
the US east coast,40.7021509,-74.0158448,"East Coast Memorial, Battery Park Underpass, New York, NY 10004, USA",ant_osoba14 All my friends on the US east coast,,,
the US east coast,26.6405582,-80.0582743,"Northeast Coast Street, Lake Worth, FL 33460, USA",ant_osoba14 All my friends on the US east coast,,,
the US east coast,25.7802027,-80.18855239999999,"Florida East Coast, Miami, FL, USA",ant_osoba14 All my friends on the US east coast,,,
the US east coast,25.7802027,-80.18855239999999,"Florida East Coast, Miami, FL, USA",ant_osoba14 All my friends on the US east coast,,,
the US east coast,26.5707243,-80.0546425,"East Coast Avenue, Lake Worth, FL 33462, USA",ant_osoba14 All my friends on the US east coast,,,
the US east coast,26.6050319,-80.05916100000002,"East Coast Avenue South, Lake Worth, FL 33460, USA",ant_osoba14 All my friends on the US east coast,,,
the US east coast,39.7296213,-74.1221097,"East Coast Avenue, Beach Haven, NJ 08008, USA",ant_osoba14 All my friends on the US east coast,,,
the US east coast,41.781875,-70.74013099999999,"SBG East Coast, 14 Kendrick Road, Wareham, MA 02571, USA",ant_osoba14 All my friends on the US east coast,,,
the US east coast,26.4933096,-80.1929529,"Florida East Coast Rlwy, Florida, USA",ant_osoba14 All my friends on the US east coast,,,
the US east coast,26.4933096,-80.1929529,"Florida East Coast Rlwy, Florida, USA",ant_osoba14 All my friends on the US east coast,,,
the US east coast,29.7074222,-81.29572309999999,"Florida East Coast Railway, Florida, USA",ant_osoba14 All my friends on the US east coast,,,
the US east coast,29.7074222,-81.29572309999999,"Florida East Coast Railway, Florida, USA",ant_osoba14 All my friends on the US east coast,,,
’s # Sandy # EvacuationZones the Island ’s Original Coastline,0.0,0.0,,,,,
,0.0,0.0,,,NBCNewsBusiness,,Free gas
Manhattan,40.790278,-73.959722,"Manhattan, New York, NY, USA",jeanniemcbride Them Obama Celebs,,,
,0.0,0.0,,,twitter XOCare,,
,0.0,0.0,,your,your insurance company,,
,0.0,0.0,,,EsriDefense Esri,,Hurricane # Sandy # maps
At least 6 states hit by # Sandy,0.0,0.0,,AriBerman,,,
,0.0,0.0,,,SINYCliving us Post,,interactive map http://t.co/D2woDGlA
,0.0,0.0,,we,wtcommunities,,
New York,40.7127837,-74.0059413,"New York, NY, USA",New York  based developers Chris Ackermann and Peter Nghave,Instagram,,Instagram Photos
,0.0,0.0,,HurtBlogger this # spoonie,,,
,0.0,0.0,,,nkotbnews,,
,0.0,0.0,,,,,
,0.0,0.0,,Congressional Campaign Manager,,,
NYC,40.7127837,-74.0059413,"New York, NY, USA",christophjoyce,,NYC 's Underground Power Grid,
,0.0,0.0,,,Utility System,,
,0.0,0.0,,,todayshowhealth,,
,0.0,0.0,,SenGillibrand,,,sandy # relief # guidebook
Rockaway Beach,40.5867247,-73.8114993,"Rockaway Beach, Queens, NY 11693, USA",FLeXxX,newsbreaker Instagram,,PHOTO http://t.co/2rZkuik3 Instagram photo
"Manhattan , NY",40.790278,-73.959722,"Manhattan, New York, NY, USA",,Hospitals,,
"Manhattan , NY",40.7830603,-73.9712488,"Manhattan, NY, USA",,Hospitals,,
,0.0,0.0,,I,,,
,0.0,0.0,,,,Northeast hospitals,
,0.0,0.0,,FRANKCUNHAIII AxelKoster jade33870 azzatilana Trans1110 allaboutenergy WebmasterRidge spicy_spice,,,
,0.0,0.0,,,FCC fema,,
Fairfield,41.1408363,-73.2612615,"Fairfield, CT, USA",,Fairfield Citizen,,
Fairfield,40.8837406,-74.3059959,"Fairfield, NJ, USA",,Fairfield Citizen,,
,0.0,0.0,,barackobama GovChristie,CNN cspan,,
,0.0,0.0,,,,Schools Transit,
,0.0,0.0,,Steve King,Sandy,,Sandy Relief Money
,0.0,0.0,,New Yorkers without power,glamour_fashion BarneysNY,,power
Alabama,0.0,0.0,"Alabama, USA",hurricane victims,Unions Alabama ’s WAFF 48 News,,
,0.0,0.0,,,,,
NJ,0.0,0.0,"New Jersey, USA",CoryBooker NJ Sandy victims,,,
,0.0,0.0,,WayneValley_V us,,,
Lake Michigan,0.0,0.0,"Lake Michigan, United States",,cnnbrk weather service,,
Indiana,0.0,0.0,"Indiana, PA, USA",WinkEi8htYa you we We,,,
,0.0,0.0,,us we Thomas Merton,,,
,0.0,0.0,,I,,,
NYC,40.7127837,-74.0059413,"New York, NY, USA",People they their,,their homes,
Williamsburg,37.2707022,-76.7074571,"Williamsburg, VA, USA",victims of # Sandy,,,
albany,42.6525793,-73.7562317,"Albany, NY, USA",people,,,
albany,31.5785074,-84.15574099999999,"Albany, GA, USA",people,,,
,0.0,0.0,,,blackstone Blackstone portfolio company IndCor RedCross,"about 126 , 000sq  of space for # Sandy disaster relief",
,0.0,0.0,,pesatalk evanskidero JimnahMbaru philipkisia mayorGaladwa,,,
Vermont just about every place in the vast territory,0.0,0.0,"Vermont, USA",,,,
,0.0,0.0,,,ICD10_Monitor,,
,0.0,0.0,,,HIMYM_CBS,,
Upper East Side NYC,40.7735649,-73.9565551,"Upper East Side, New York, NY, USA",,,,
,0.0,0.0,,,,Oma 's shore house,
,0.0,0.0,,,fellow school board,the city streets,
,0.0,0.0,,Obama,msnbc,,
the Atlantic from # Sandy,0.0,0.0,,RyanMillerABC7,capitalweather,,
,0.0,0.0,,,Google,,Google 's Superstorm Sandy crisis map eyewitness video
NY,40.7127837,-74.0059413,"New York, NY, USA",a lot of people NY mayor & amp;NJ gov them,,,
,0.0,0.0,,,"travel , cargo operations",,
,0.0,0.0,,YanceyRoy,,,
,0.0,0.0,,Maxs_LilMonkeyy us everyone,,,
,0.0,0.0,,sharris07 cufyochickbert,,,
,0.0,0.0,,SeanKCarter Non  union Relief Crews,New Jersey,,
Houston,0.0,0.0,"Houston, TX, USA",BossChicks they so many in the NICU they several babies 2 backboards them,,the NICU,backboards
,0.0,0.0,,,Gap,,
,0.0,0.0,,evanchooly bloomberg,,,
,0.0,0.0,,,dailyrecord NJ_TRANSIT Majority of # NJTransit bus service,,
,0.0,0.0,,,AP_Mobile,,interactive storm tracker
The Beach,32.4839922,-80.97624139999999,"S-27-266, Ridgeland, SC 29936, USA",,,,
,0.0,0.0,,POTUS he,,,
,0.0,0.0,,Yankees,,,$ 1 million
,0.0,0.0,,volunteers,Hurricane # Sandy disaster recovery program JobHuntOrg,,
Horsham Lower Gwynedd Lower Merion Lower Moreland Lower Providence Lower Salford Montgomery Township Skippack,0.0,0.0,"Horsham, PA, USA",,,,
SE PA,0.0,0.0,"Pennsylvania, USA",sis in SE PA,,,
Jersey Shore,0.0,0.0,"Jersey Shore, PA 17740, USA",,,The waterfront rides on Casino Pier,video
,0.0,0.0,,,,,
,0.0,0.0,,,,,
,0.0,0.0,,sandy victims on cruise ships GOP # NYsen candidate Long,GOP CapitalTonight,cruise ships,
,0.0,0.0,,"145 , 000 Canadians",,,power
NJ Alabama,40.0126553,-74.6176392,"Alabama Avenue, Fort Dix, NJ 08640, USA",1SupremeGoddess Non  Union Alabama Electrical Workers,Hurricane  Devastated NJ Town,,
NJ Alabama,39.9045557,-75.1006797,"Alabama Road, Camden, NJ 08104, USA",1SupremeGoddess Non  Union Alabama Electrical Workers,Hurricane  Devastated NJ Town,,
NJ Alabama,40.899723,-74.150618,"Alabama Avenue, Paterson, NJ, USA",1SupremeGoddess Non  Union Alabama Electrical Workers,Hurricane  Devastated NJ Town,,
NJ Alabama,40.0109673,-74.12445319999999,"Alabama Avenue, Toms River, NJ 08753, USA",1SupremeGoddess Non  Union Alabama Electrical Workers,Hurricane  Devastated NJ Town,,
NJ Alabama,40.1100476,-74.1251743,"Alabama Avenue, Brick, NJ 08724, USA",1SupremeGoddess Non  Union Alabama Electrical Workers,Hurricane  Devastated NJ Town,,
NJ Alabama,39.91646110000001,-74.57769619999999,"Alabama Trail, Browns Mills, NJ 08015, USA",1SupremeGoddess Non  Union Alabama Electrical Workers,Hurricane  Devastated NJ Town,,
NJ Alabama,39.9566577,-74.39222869999999,"Alabama Lane, Manchester Township, NJ 08759, USA",1SupremeGoddess Non  Union Alabama Electrical Workers,Hurricane  Devastated NJ Town,,
NJ Alabama,39.022502,-74.935592,"Alabama Avenue, Villas, NJ 08251, USA",1SupremeGoddess Non  Union Alabama Electrical Workers,Hurricane  Devastated NJ Town,,
NJ Alabama,40.1455547,-74.2632981,"Alabama Court, Jackson, NJ 08527, USA",1SupremeGoddess Non  Union Alabama Electrical Workers,Hurricane  Devastated NJ Town,,
NJ Alabama,40.9729363,-74.6295124,"Alabama Avenue, Lake Hopatcong, NJ 07849, USA",1SupremeGoddess Non  Union Alabama Electrical Workers,Hurricane  Devastated NJ Town,,
NJ Alabama,39.6008313,-74.2102565,"East Alabama Avenue, Long Beach Township, NJ 08008, USA",1SupremeGoddess Non  Union Alabama Electrical Workers,Hurricane  Devastated NJ Town,,
NJ Alabama,40.4323855,-74.25936449999999,"Alabama Court, Matawan, NJ 07747, USA",1SupremeGoddess Non  Union Alabama Electrical Workers,Hurricane  Devastated NJ Town,,
NJ Alabama,39.6030797,-74.2151495,"West Alabama Avenue, Long Beach Township, NJ 08008, USA",1SupremeGoddess Non  Union Alabama Electrical Workers,Hurricane  Devastated NJ Town,,
NJ Alabama,39.5518534,-74.3749122,"Alabama Drive, Little Egg Harbor Township, NJ 08087, USA",1SupremeGoddess Non  Union Alabama Electrical Workers,Hurricane  Devastated NJ Town,,
,0.0,0.0,,Teresia198525 I,,,
Jersey Shore,0.0,0.0,"Jersey Shore, PA 17740, USA",,ABC News ABC,,
Chicago,0.0,0.0,"Chicago, IL, USA",,washingtonpost,,
,0.0,0.0,,I We,nytimes,,
,0.0,0.0,,TIARABELLAAA you Bruno You guys,,,
,0.0,0.0,,Whom It May Concern you I,NASA,,satellite footage of # Sandy an online video
,0.0,0.0,,Miles MZbarrow11,,,
,0.0,0.0,,TamberBernelle evryone,,,
east coast,0.0,0.0,"East Coast Expressway, Malaysia",,,MitchellAirport,radar
,0.0,0.0,,KathleenEDavis,EntMagazine Small Businesses,,
Suffolk,36.7282054,-76.5835621,"Suffolk, VA, USA",Suffolk residents who come into contact with floodwater from # Sandy,SuffolkCoHealth,,
,0.0,0.0,,charlesornstein,NewYorkPost NYU,NYU 's Langone Medical Center,
,0.0,0.0,,,NBA The Association BrooklynNets,,
,0.0,0.0,,,UNICEF Haiti independent,,
Where To Help,25.7226566,-80.4199162,"Building B, Miami, FL 33175, USA",1010WINSNewYork,,,
Disaster # HELPLINE page,0.0,0.0,,Barbi_Twins,,,
,0.0,0.0,,Kyle_Eloise PEOPLEPets hurricanesandy cleanup crew,,,
jerseyshore,0.0,0.0,"Jersey Shore, PA 17740, USA",You brucespringsteen,,The # jerseyshore boardwalk,
New York Chelsea,40.7465004,-74.00137370000002,"Chelsea, New York, NY, USA",,,New York 's Chelsea art galleries Street  level spaces,
New York Chelsea,40.5890113,-74.19151769999999,"Travis - Chelsea, Staten Island, NY, USA",,,New York 's Chelsea art galleries Street  level spaces,
New York Chelsea,41.5537048,-73.96680529999999,"Chelsea, NY 12590, USA",,,New York 's Chelsea art galleries Street  level spaces,
,0.0,0.0,,,Atlantic City,casinos casinos,
North America United States,0.0,0.0,"North, Wyoming, USA",,Twitter,,
,0.0,0.0,,Iamteambiebah us,,,
,0.0,0.0,,Obama,,Houses in Floodplains,
,0.0,0.0,,most travelers,Delta Its JFK Operation,,
island,0.0,0.0,Iceland,LBI residents trying to access island,,Route 72 checkpoint,
,0.0,0.0,,,,,
,0.0,0.0,,,,,
,0.0,0.0,,the inmates all violent molesters them,YourAnonNews,,
,0.0,0.0,,,,,
,0.0,0.0,,,Gas stations Yahoo ! News YahooNews,,
,0.0,0.0,,AnnieLK12,one district,,
,0.0,0.0,,I I,,,
Wilmington ( DE,39.7390721,-75.5397878,"Wilmington, DE, USA",VP Biden,WDEL Feds,,
,0.0,0.0,,HIM CHRSTIE,GOP,,
NYC,40.7127837,-74.0059413,"New York, NY, USA",Hollywood A  listers,RBO News,homes,
,0.0,0.0,,,,,
,0.0,0.0,,AFrankenStorm,,The streets,
,0.0,0.0,,theSteelkid me,,,
,0.0,0.0,,,JetBlue Airways JetBlue,,
,0.0,0.0,,critical staff,IMF,HQ,
Cape Ann,42.648611,-70.5930556,"Cape Ann, Rockport, MA 01966, USA",,Gloucester Daily Times,,
,0.0,0.0,,,,,
,0.0,0.0,,LacedUp_Jay,,,
,0.0,0.0,,DWTS champ J.R . Martinez robsoninc,,,Stunning images from the wreckage left by Sandy
,0.0,0.0,,JerrySeinfeld Gov . Cuomo,,,
,0.0,0.0,,Obama Obama Obama Obama Obama Obama Obama,,,
,0.0,0.0,,,ABCNews,,
,0.0,0.0,,ariannahuff,,,
,0.0,0.0,,Obama,government Christian Science Monitor,,
,0.0,0.0,,u lyricalgoodgod anyone else they,,,
the tri  state area,0.0,0.0,"Tri-State Road, Westby, WI 54667, USA",Yankees The # Yankees,,,"$ 500,000"
,0.0,0.0,,hardly anyone,,,
,0.0,0.0,,BoldProgressive GOPLeader Eric Cantor,FEMA,,
NJ Shores,40.8102944,-74.5733027,"Shores Road, Randolph, NJ 07869, USA",taggarteacher Students sandy victims,,,
NJ Shores,40.452245,-74.1726607,"Vista Shores, Keyport, NJ 07735, USA",taggarteacher Students sandy victims,,,
several townships in South Jersey,0.0,0.0,,Governor Christie,,,
,0.0,0.0,,CastingClouds15 hurricannesandy YOU aciigray,,,
,0.0,0.0,,Obama Christie,ABSCBNNews ANCALERTS,,
,0.0,0.0,,you,REDCROSS,,$ 10 donation
,0.0,0.0,,you deevlish 1069thewolf,,,the Wind map
,0.0,0.0,,Non  union utility workers,,,
,0.0,0.0,,every1,BuddyfliesReach Buddyflies Reach,,
,0.0,0.0,,jonathanwald,,new 57th Street high  rise in Manhattan,Photo
,0.0,0.0,,PicoBee Nervana_1 bebird lots of elderly,CentralHudson,Wittenberg road,
,0.0,0.0,,Gothamist Cory Booker Sandy Victims His,,His Crib,
,0.0,0.0,,,Broadway,Downtown Stages,
,0.0,0.0,,trickhosken Kzap131 ya ' ll us bwgohn Mike Murray,,,
the world,0.0,0.0,The World - United Arab Emirates,my kittycatchao nycmarriner,,"my favorite bar in the world , Standings",
WASHINGTON,38.7134519,-78.1594439,"Washington, VA 22747, USA",Romney Obama,Green Party The White House,,
WASHINGTON,33.7367948,-82.7393089,"Washington, GA 30673, USA",Romney Obama,Green Party The White House,,
,0.0,0.0,,a proactive passenger @ # IDIA she,7NEWSNow,IDIA,
Staten Island,40.5795317,-74.1502007,"Staten Island, NY, USA",C_P_Randall those suffering on Staten Island Obama Bloomberg Christie one another,FEMA,,
New Jersey,0.0,0.0,"New Jersey, USA",MelissaJoanHart,MTV AP MTV,,
,0.0,0.0,,,NYC Startups Each Other mashable,,
Atlantic County,39.5333379,-74.6868815,"Atlantic County, NJ, USA",,Atlantic County Regional,,
,0.0,0.0,,,Google mashable,,Crisis Map for Hurricane Sandy
,0.0,0.0,,SabOSosaa we i,,,
,0.0,0.0,,NYGovCuomo maddow,,,
,0.0,0.0,,Those Enduring Sandy 's Wrath,Alternet,,Frightening and Amazing Photos From Those Enduring Sandy 's Wrath
,0.0,0.0,,prvtschoolprobs You my,my school,,
NJ,0.0,0.0,"New Jersey, USA",TheObamaDiary Comfort Pres Obama Nth Pt Marina owner Donna Vanzant he,,,
New York region,0.0,0.0,"New York, USA",,,,
,0.0,0.0,,JeffreyYoung_HC,Health Care System HuffPost,,
,0.0,0.0,,,buzzfeed,,29 Breathtaking Photos Of Hurricane Sandy 's Devastation
,0.0,0.0,,consumers,FTC FTC,,
,0.0,0.0,,President Obama N.J . Gov . Christie,HuffPostPol,,
Hartford Hartford Hartford,41.7676885,-72.6875665,"Hartford, 55 Farmington Avenue, Hartford, CT 06105, USA",Sightseers,Hartford Courant,Hartford Home Destroyed By Sandy Hartford Home Destroyed By Sandy,
over the north east,39.5562214,-75.9589512,"Bridge over Lane, North East, MD 21901, USA",KidFury i,,,
,0.0,0.0,,,,,a freezer bag Solid ice block
,0.0,0.0,,carr2n,Twitter,,
,0.0,0.0,,We,Scientific American Blog Network,,
,0.0,0.0,,jfedor21,,Bert and Ernie 's War Room,
,0.0,0.0,,SunniAndTheCity WHITE PPL,,,
,0.0,0.0,,,,,
a # drupal 7 site,0.0,0.0,,I,,,
,0.0,0.0,,"weeddude Number of # NYC cyclists a day on E . River bridges 13,000 30 , 000",DOT TransportNation,E . River bridges,
,0.0,0.0,,Wireless operators,,,
,0.0,0.0,,MotherJones,mid  Atlantic America,,Photo
,0.0,0.0,,,Wall Street,,
NewJersey Ocean City,39.2776156,-74.5746001,"Ocean City, NJ, USA",,,,VIDEO THIS MONRING
NewJersey Ocean City,40.2479729,-74.029843,"Ocean Township, NJ, USA",,,,VIDEO THIS MONRING
NewJersey Ocean City,39.7904391,-74.2176448,"Ocean Township, NJ, USA",,,,VIDEO THIS MONRING
,0.0,0.0,,,OpenWirelessMovement,,"free , open  access wireless internet"
,0.0,0.0,,,GoogleLocalNYC googlemaps,"transit lines working subway & amp ; "" bus bridge "" lines",
Gaza,0.0,0.0,Gaza,,Christianpost CP World Report,,
,0.0,0.0,,"EastonPA , Wilson , NotreDame & amp ; St . Jane 's students",EastonPA Wilson NotreDame St . Jane 's,,
,0.0,0.0,,me i,,,
110mi SE of Atlantic City 175mi SSE of NYC,40.7127837,-74.0059413,"New York, NY, USA",,,,
,0.0,0.0,,mobile autistic  NYers,,Most gas stations,
,0.0,0.0,,Residents Displaced by Sandy,Mashable New Jersey,,
,0.0,0.0,,,,,
NY,40.7127837,-74.0059413,"New York, NY, USA",,NY Times Dot Earth Blog,,
NYC,40.7127837,-74.0059413,"New York, NY, USA",,,NYC Data Centers,
,0.0,0.0,,,NewsWatch,,
,0.0,0.0,,AndrewLeighNYC me our,,,our hurricane rations
,0.0,0.0,,LaMaisonDeux Sandy victims,,,
,0.0,0.0,,thousands,NYC,,
,0.0,0.0,,,,,
,0.0,0.0,,reneegraziano hitmansteviej the # HurricaneSandy victims,,,
,0.0,0.0,,phemnahs omojuwa ekekeee u some pple deh som matured folks,,,
,0.0,0.0,,,travelingreport,,
,0.0,0.0,,DeborahMitton,,NVCC Annandale Campus bookstore,
,0.0,0.0,,,,,
Chicago shoreline,0.0,0.0,"Shoreline Drive, Park Ridge, IL 60068, USA",,chicagotribune,,
the central Caribbean,0.0,0.0,"Caribbean, Jalan Raya Delta MAS-Tegal Danas, Cikarang Pusat, Bekasi 17530, Indonesia",,breakingweather,,
,0.0,0.0,,auburnkt,NY NJ,,
,0.0,0.0,,skippybkroo,,,
,0.0,0.0,,erinzani we trampoline,,,
,0.0,0.0,,,Business Beast,the Markets,
,0.0,0.0,,those on the front lines of Sandy,,,
,0.0,0.0,,,,,
,0.0,0.0,,,,,Video
New York Ulster County,41.8586493,-74.3118212,"Ulster County, NY, USA",,,,
,0.0,0.0,,blessedthug I you they I,,,
,0.0,0.0,,bobbyp I,,,
,0.0,0.0,,danlisle I,,,
,0.0,0.0,,Funando me,,,
New York City,40.7127837,-74.0059413,"New York, NY, USA",,EarthShare biggest beekeeping operation in New York City,,
,0.0,0.0,,souldier StopMotionsolo Buddhagem,,Food & amp ; water distribution locations for tomorrow,
,0.0,0.0,,SINYCliving Staten Island,RZA,,
,0.0,0.0,,mariaalindholm,New York Magazine,,
,0.0,0.0,,madewithnachos,rhookinitiative,,
NJ,0.0,0.0,"New Jersey, USA",,FeedingAmerica FoodbankMOC,,Emergency disaster family boxes
,0.0,0.0,,,Newsday,,
,0.0,0.0,,yall,,,
Queens,40.75,-73.86666699999999,"Queens, NY, USA",JoeSixpackSays,,50 homes,
Queens,40.7282239,-73.7948516,"Queens County, NY, USA",JoeSixpackSays,,50 homes,
NY,40.7127837,-74.0059413,"New York, NY, USA",,cnnbrk NY Port Authority Bus Terminal,,
,0.0,0.0,,everyone,,,everyone else's ) generators
,0.0,0.0,,those in Superstorm Sandy 's path,,,
,0.0,0.0,,frubencuben I me I I I,,,
the US Northeast,0.0,0.0,"Nebraska, USA",,youtube,,
,0.0,0.0,,We our fellow techies who are working hard to to get New Yorkers online after Sandy,,,
Long Island Florida,30.5530012,-82.43567929999999,"Long Island, Florida, USA",GRITS1954,Long Island union Florida utilities,,
,0.0,0.0,,MicheleWitchipo,Mytle Avenue Business Improvement District,,
,0.0,0.0,,,,,These headgear lights
,0.0,0.0,,,,,
Drought  Plagued Midwest Drought  plagued Midwest farming states,0.0,0.0,,,,,
,0.0,0.0,,sickjew,OccupyWallStNYC occupywallstnyc,,
,0.0,0.0,,TommyTee knirckefar Sean Price SeanMandela,DuckDownMusic,,
,0.0,0.0,,nikkifinke,,,
Mt Sinai NY,40.9470432,-73.0295495,"Mount Sinai, NY, USA",Koga Fitness Members us,Koga Fitness,,
Mt Sinai NY,40.7891567,-73.9540425,"Mount Sinai Faculty Practice Associates, 5 East 98th Street #8, New York, NY 10029, USA",Koga Fitness Members us,Koga Fitness,,
Lake Erie,0.0,0.0,"Lake Erie, United States",GreatLakesGuy,NWSCLE,,
Jersey where the flooding is so high that there are sharks swimming about,0.0,0.0,,,,,a picture of New Jersey where the flooding is so high that there are sharks swimming about
,0.0,0.0,,,,,
,0.0,0.0,,GlobalWarming36 Us We,Huffington Post,,
,0.0,0.0,,students teachers administrators,NYCSchools,All schools,
,0.0,0.0,,,,,
,0.0,0.0,,Romney Governor,NewsOneOfficial,,VIDEO
,0.0,0.0,,,,,
,0.0,0.0,,Peepsqueak whateverhewants,,2 NuclearPowerPlants,
,0.0,0.0,,me I,,,electricity
,0.0,0.0,,SenLindseyGrahamSC SenJohnMcCain grahamblog BretBaier maddow,foxnews,,
NYC evac zones,40.7127837,-74.0059413,"New York, NY, USA",,,,
,0.0,0.0,,MotherJones you,,,
,0.0,0.0,,Chris Christie mittromney,ObamaNews,,
Atlantic City,39.3642834,-74.4229266,"Atlantic City, NJ, USA",,twc_hurricane TxStormChasers,White Horse Parkway,
,0.0,0.0,,Christie I,PoliticalTicker,,
NY,40.7127837,-74.0059413,"New York, NY, USA",BurgessEv,NY transit Amtrak POLITICO,entire NEC,
,0.0,0.0,,JazmineSkye realDonaldTrump,,,
NYC,40.7127837,-74.0059413,"New York, NY, USA",Sandy   refugees,NYC co  working spaces and startups,,
,0.0,0.0,,speaker,,,
,0.0,0.0,,,inthesetimesmag,,
,0.0,0.0,,gabrielstricker,twitter,,
,0.0,0.0,,vipnikiki,USABigBang BigBang VIP Sandy Relief Fund,,Information Flyer
,0.0,0.0,,Kelly Michael,,,
,0.0,0.0,,hurricane  relief Guardsmen,Victoria ’s Secret show,armory,
Old Saybrook,41.2960159,-72.38453009999999,"Old Saybrook, CT, USA",cloepoisson,,,
Sandy disaster areas,0.0,0.0,,,,,
,0.0,0.0,,I,National Hurricane Center,,
Galloway NJ,39.4928235,-74.5596879,"Galloway, NJ, USA",rachele_walter your Galloway NJ staff Sandy victim,RamadaWorldwide you your,,
,0.0,0.0,,,cnnbrk,,
,0.0,0.0,,,Living Earth HD,,
,0.0,0.0,,machinegunkelly nobody,,,
Salem area SALEM,37.2893005,-80.0787355,"MedExpress Urgent Care - Salem - Roanoke Area, 1336 West Main Street, Salem, VA 24153, USA",local residents many,,,
,0.0,0.0,,,NJOEM2010 FEMA,,a Sandy page
,0.0,0.0,,Brigantine man officials,,,
,0.0,0.0,,,,,
,0.0,0.0,,Mayor Bloomberg,,,
neighborhoods,39.2997946,-76.61552619999999,"Healthy Neighborhoods, Baltimore, MD 21202, USA",People,,,
areas hardest hit by # sandy,0.0,0.0,,,,,
,0.0,0.0,,AmyFreeze Ginger_Zee LeeGoldbergABC7 SamChampion,,,
,0.0,0.0,,getoffmy_DEC me u my sis,,,
in and around NYC,40.7451883,-73.98603229999999,"The Church of the Transfiguration, 1 East 29th Street, New York, NY 10016, USA",,,,MTA Flickr photoset of # Sandy preparations in and around NYC
,0.0,0.0,,rmcnally87 IamJackyBlack purdeyshot87,,,
,0.0,0.0,,Mpkann I,,,
,0.0,0.0,,,US,,
Chi,0.0,0.0,"Chi Bungyōmachi, Kaga-shi, Ishikawa-ken, Japan",people,,,
,0.0,0.0,,,FWaterSys,,
,0.0,0.0,,LeeSpielman everyone,,,photos of this hurricane
,0.0,0.0,,,Storm  battered US,,
nj,0.0,0.0,"New Jersey, USA",Real_Liam_Payne me liam me,,,
,0.0,0.0,,YOU,TFLN,,SHOTGUNS
"Brooklyn Brooklyn , N.Y",40.6781784,-73.9441579,"Brooklyn, NY, USA",,,,
,0.0,0.0,,all in Sandy 's path,WiFiNovation Comcast,,free #  service
,0.0,0.0,,,femaregion1,,
,0.0,0.0,,HiMyNameIsSeton thejettylife,,,
,0.0,0.0,,,Sport Reuters,,
,0.0,0.0,,I,,,
,0.0,0.0,,MartinShipman,,,
,0.0,0.0,,,,,
,0.0,0.0,,newdesertblues,,,
,0.0,0.0,,FreddyStephan LebaneseProblem,,,
,0.0,0.0,,bySamRo,DRUDGE_REPORT,,
,0.0,0.0,,,ABC,,
New York Manhattan,40.790278,-73.959722,"Manhattan, New York, NY, USA",,New York Magazine,,Amazing cover from New York Magazine . A view of Manhattan from above when Sandy hit
New York Manhattan,40.7830603,-73.9712488,"Manhattan, NY, USA",,New York Magazine,,Amazing cover from New York Magazine . A view of Manhattan from above when Sandy hit
,0.0,0.0,,Jersey Shore Cast Jersey Shore Cast,E ! Online,,
,0.0,0.0,,Your,,,Your Power
,0.0,0.0,,,,'s # roadways,
,0.0,0.0,,NYPD officer storm victims his family,RT_com NYPD,,
,0.0,0.0,,Millions,,Streets,Power
,0.0,0.0,,Pa Pennsylvanians,AP,,
,0.0,0.0,,,HuffPostImpact ciscocsr,,
Worcester Millbury Douglas Clinton,42.19207189999999,-71.761522,"Millbury, MA, USA",,telegramdotcom,"Worcester , Millbury , Douglas , Clinton schools",
,0.0,0.0,,People people family,,,
WASHINGTON US,33.7367948,-82.7393089,"Washington, GA 30673, USA",Obama,FEMA The US federal agency,,
,0.0,0.0,,htTweets,,,
,0.0,0.0,,,,,
,0.0,0.0,,Katersoneseven,,,
,0.0,0.0,,Charles Woodson,,,"$ 100,000"
"Po , powerless Manhattan",40.790278,-73.959722,"Manhattan, New York, NY, USA",,,,
NYC,40.7127837,-74.0059413,"New York, NY, USA",fire department worker,,,
,0.0,0.0,,OhMyDAISS,,the statue of liberty,
,0.0,0.0,,,GMA FlightAware ABCaviation,,
,0.0,0.0,,"6,655,293 customers",,,
,0.0,0.0,,jonronson,,,This the iconic Sandy picture
,0.0,0.0,,,washingtonpost,,
,0.0,0.0,,,,Nuclear # Energy Facilities,
,0.0,0.0,,Funny_Truth You people,,,Shocking Sandy photos
Michigan,0.0,0.0,"Michigan, USA",andersoncooper,,,
,0.0,0.0,,,todayshow,,Storm Tracker
,0.0,0.0,,,Connecticut Maine,,
,0.0,0.0,,everyone,,,
,0.0,0.0,,,OccHealthSafety FEMA,,
Carroll Gardens,40.6795331,-73.9991637,"Carroll Gardens, Brooklyn, NY, USA",Little kid,,,
,0.0,0.0,,NYULMC researchers,,,
,0.0,0.0,,people,NYPost,,Generators
,0.0,0.0,,jbelmont CraigatFEMA,witfnews,,
,0.0,0.0,,Cutthroat New Yorkers mkgalante,,,
,0.0,0.0,,,Telecommunication firms Reuters,,
,0.0,0.0,,,WLTX,,
NEW YORK,40.7127837,-74.0059413,"New York, NY, USA",,Reuters,,
Much of lower Manhattan,40.790278,-73.959722,"Manhattan, New York, NY, USA",Tons Of Displaced Celebrities,,This Swanky Manhattan Hotel,
Across US,39.3417065,-76.9502577,"Across Road, Sykesville, MD 21784, USA",browardnet,,Shelters,Interactive Google Map
Across US,39.315076,-76.9136578,"Across Road, 3, West Friendship, MD 21104, USA",browardnet,,Shelters,Interactive Google Map
,0.0,0.0,,,FastCompany FCC,,
,0.0,0.0,,,valleyoffear,,
,0.0,0.0,,bigspaceship,,,
Sandy  Affected Areas,0.0,0.0,,,AT&amp;T And T  Mobile,,
,0.0,0.0,,those stranded by Sandy,,,Last  minute hotel booking apps
,0.0,0.0,,GwenHeasley,publisherswkly,Bookstores powerHouse Arena,
,0.0,0.0,,,,,
Boston  area,0.0,0.0,"Area Road, New Boston, TX 75570, USA",,AP,Boston  area public transit,
,0.0,0.0,,blackenterprise Customers,Banks,,
,0.0,0.0,,,hurricanehackrs at http://t.co/sYG6ZkK1,,
NYC,40.7127837,-74.0059413,"New York, NY, USA",Amerifags SandysHurricane,,,
New York,40.7127837,-74.0059413,"New York, NY, USA",DjEnuff,HipHopWired BrackettMusic The New York Timez,,
sandy,0.0,0.0,"Sandy, UT, USA",MarielHemingway you ya your,,,your # opensky # sandy
,0.0,0.0,,,cnnbrk CNNLive,,
,0.0,0.0,,We,,,
,0.0,0.0,,,mtvpowerof12,,
,0.0,0.0,,,Moody 's,,
,0.0,0.0,,,,,
,0.0,0.0,,one New Yorker their neighbors,,,
New York,40.7127837,-74.0059413,"New York, NY, USA",,,New York Streets,PICS
Lake Michigan,0.0,0.0,"Lake Michigan, United States",,NWSChicago,,
Philly,0.0,0.0,"Philadelphia, PA, USA",Hurricane Sandy Goon,iLPvideo,,Video
,0.0,0.0,,Ch0ppy I,,,
,0.0,0.0,,petapixel Internet model,,,
,0.0,0.0,,,,buildings,
,0.0,0.0,,East Coast 6 . 5M,FoxNews,,
,0.0,0.0,,TheRock all those affected by Sandy you,,,
,0.0,0.0,,Long Islanders Love Ones,Facebook Google Docs,,
,0.0,0.0,,allthingsd ahess247,,,
Caribbean,0.0,0.0,Caribbean,,JamaicaObserver,,
16 states,43.4166325,-73.9854991,"16 States Road, Stony Creek, NY 12878, USA","dcschrader more than 9 , 000 people",redcross,,
16 states,34.07655099999999,-84.788156,"16 States Avenue, Dallas, GA 30132, USA","dcschrader more than 9 , 000 people",redcross,,
16 states,39.0148828,-74.9353294,"16 States Avenue, Villas, NJ 08251, USA","dcschrader more than 9 , 000 people",redcross,,
16 states,43.7300716,-71.35760590000001,"16 States Landing Road, Moultonborough, NH 03254, USA","dcschrader more than 9 , 000 people",redcross,,
16 states,39.8070386,-74.9672941,"16 United States Avenue, Lindenwold, NJ 08021, USA","dcschrader more than 9 , 000 people",redcross,,
16 states,37.3110642,-76.7452781,"States Avenue, Williamsburg, VA 23188, USA","dcschrader more than 9 , 000 people",redcross,,
16 states,40.0658486,-74.874612,"16 States Avenue, Burlington, NJ 08016, USA","dcschrader more than 9 , 000 people",redcross,,
This place,49.7672219,4.6751319,"Route de This, 08000 Warcq, France",I,TheAppalachian,,
This place,44.357324,-69.31215379999999,"This Way, Liberty, ME 04949, USA",I,TheAppalachian,,
This place,49.7744757,4.6340083,"Rue de This, 08090 Belval, France",I,TheAppalachian,,
This place,37.5988149,-79.598051,"This Way, Buchanan, VA 24066, USA",I,TheAppalachian,,
This place,38.6577985,-75.42201659999999,"This Way, Georgetown, DE 19947, USA",I,TheAppalachian,,
This place,41.6463477,-70.3913436,"This Way, Osterville, MA 02655, USA",I,TheAppalachian,,
,0.0,0.0,,,HuffingtonPost New York,,
,0.0,0.0,,,,,
,0.0,0.0,,Kvittrekvitre,,,Space Shuttle Enterprise
NY,40.7127837,-74.0059413,"New York, NY, USA",,,Broadway,
,0.0,0.0,,Jen Marra,,,Photos by Jen Marra http://t.co/RLcEXGed
,0.0,0.0,,christymccrazy Jessy_Viggs XOnora11 LKP9841 cflanagan3 kelsoconnell megpinc michaykay,,,
Virginia,37.4315734,-78.6568942,"Virginia, USA",Boy,,Flooded Virginia Streets,Air Mattress
ZIP codes impacted by # Sandy,0.0,0.0,,UPS Customers,UPS UPS,,
iconic New York,40.7127837,-74.0059413,"New York, NY, USA",OpPinkPower,YourAnonNews,,
,0.0,0.0,,,,City Streets The Perfect Track For Stunt Driving,
,0.0,0.0,,HappyPlace Siri,,,
,0.0,0.0,,me BoingBoing,twitter Gawker Buzzfeed Huffington Post,,
Sandy  hit areas,0.0,0.0,,,USNews CBS News,,
City of Ottawa,0.0,0.0,"Ottawa, ON, Canada",grahamctv,ctvottawa,,
Northeast,0.0,0.0,"Northeast, Redmond, WA 98052, USA",50 million people,,,
WKTV,0.0,0.0,,,,,
,0.0,0.0,,crew,USATODAY Coast Guard,,Ship vessel
US,0.0,0.0,United States,,The US coastguard,,HMS Bounty
,0.0,0.0,,we,New Jersey,,
,0.0,0.0,,woman I,CP24 Police,,
,0.0,0.0,,,,,
NY,40.7127837,-74.0059413,"New York, NY, USA",,,NY lab,
,0.0,0.0,,Americans,,,
,0.0,0.0,,,,World Trade Center,
Kill Devil Hills,36.0307226,-75.6760101,"Kill Devil Hills, NC, USA",SamWalkerOBX,,Avalon Pier in Kill Devil Hills,
along the Hudson River,0.0,0.0,,Matthew_Orr,,,
metro Atlanta,33.7626014,-84.3716504,"Metro Atlanta Dermatology: Metro Atlanta Der MD, 285 Boulevard Northeast #635, Atlanta, GA 30312, USA",Hundreds,11AliveNews,,
metro Atlanta,33.7626014,-84.3716504,"Metro Atlanta Dermatology: Metro Atlanta Der MD, 285 Boulevard Northeast #635, Atlanta, GA 30312, USA",Hundreds,11AliveNews,,
metro Atlanta,33.7325485,-84.3907078,"Metro Atlanta OIC, 818 Pollard Boulevard Southwest, Atlanta, GA 30315, USA",Hundreds,11AliveNews,,
metro Atlanta,33.7595508,-84.39436529999999,"Metro Atlanta Chamber, 235 Andrew Young International Boulevard Northwest, Atlanta, GA 30303, USA",Hundreds,11AliveNews,,
metro Atlanta,33.7899187,-84.37380499999999,"Metro Atlanta Beekeepers Association, 1345 Piedmont Avenue Northeast, Atlanta, GA 30309, USA",Hundreds,11AliveNews,,
metro Atlanta,33.7789793,-84.36658800000001,"The BrickKicker of Central Metro Atlanta, Midtown Promenade, 931 Monroe Drive Northeast #102, Atlanta, GA 30308, USA",Hundreds,11AliveNews,,
metro Atlanta,33.71046,-84.404105,"Atlanta Metro College, Atlanta Metropolitan College: Upward Bound Program, Atlanta, GA 30310, USA",Hundreds,11AliveNews,,
metro Atlanta,33.955283,-84.22319499999999,"Christ Church of Metro Atlanta, 5875 Peachtree Industrial Boulevard #200, Norcross, GA 30092, USA",Hundreds,11AliveNews,,
metro Atlanta,33.816057,-84.33649199999999,"Tutor Doctor of Metro Atlanta, 1257 Vista Valley Drive Northeast, Atlanta, GA 30329, USA",Hundreds,11AliveNews,,
8 N.J . counties,16.8981414,-99.9571876,"8, Pie de La Cuesta, Acapulco, GRO, Mexico","Sandy victims in 8 N.J . counties More than 2 , 000 FEMA employees",FEMA FEMA,,
8 N.J . counties,42.6051873,-8.7229233,"Rúa Áreas, 8, 36617 Vilagarcía de Arousa, Pontevedra, Spain","Sandy victims in 8 N.J . counties More than 2 , 000 FEMA employees",FEMA FEMA,,
,0.0,0.0,,,,,
,0.0,0.0,,,,Major Airports,
,0.0,0.0,,,Red Cross,,
,0.0,0.0,,my,,my pool,
YouTube,0.0,0.0,"Youtube, 5611 Eindhoven, Netherlands",,Brooklyn,,
,0.0,0.0,,,,,
,0.0,0.0,,,Google,,
,0.0,0.0,,,Greenpeace sciam,,
,0.0,0.0,,Hurricane Sandy Victims,,,FREE PRESCRIPTIONS MEDICATIONS http://t.co/EEsFQ9qd
,0.0,0.0,,,NYPD Yahoo ! News,,Amazing Video of Superstorm Sandy Rooftop Helicopter Rescue blog http://t.co/O93CwvZC
,0.0,0.0,,,Police nbcnewyork,homes they,
,0.0,0.0,,,ASPCA sharethis,Car,
,0.0,0.0,,,,,
,0.0,0.0,,,,,Videos
,0.0,0.0,,i,,,
Hoboken NJ 4th & amp ; Bloomfield,40.7439905,-74.0323626,"Hoboken, NJ, USA",,Hoboken411 CityofHoboken HobokenPatch,New relief station in Hoboken NJ 4th Bloomfield,water shelter
,0.0,0.0,,,Insurance Companies Meteorology,the Accounting Department of Colleges,
,0.0,0.0,,Conn . Gov . Malloy,briefingroom,,
globe,0.0,0.0,"Globe, AZ, USA",travelers,,,
NYstate NJ NYcity,40.7127837,-74.0059413,"New York, NY, USA",,femaregion2,,Sandy Twitter lists 2follow
,0.0,0.0,,Many,SparkPeople,,
,0.0,0.0,,thekyleconrad,TWC,,
,0.0,0.0,,,,,
Long Island,0.0,0.0,"Long Island, New York, USA",SirMikeStuart ryanliebau I,,,the Long Island hurricane evacuation map
NYC,40.7127837,-74.0059413,"New York, NY, USA",itsWillyFerrell,,,An insane picture taken today of # HurricaneSandy approaching NYC
,0.0,0.0,,,TDBank_US TD American Red Cross,,$ 500K
,0.0,0.0,,U BrianBrownNet DailyBrian,RonPaulTeam,,
,0.0,0.0,,RainbowandLuna,,,
,0.0,0.0,,DaveedGR,TheAtlanticWire,,Great pictures The most unbelievable but real photos of Sandy 's destruction http://t.co/MqfcUP5x
an Isolated Corner of Brooklyn,40.6781784,-73.9441579,"Brooklyn, NY, USA",us Chris Gari,The city,,
,0.0,0.0,,TheScript_Danny,,,no electric
,0.0,0.0,,Two crew CTV NewsTwo crew,CNN,movie ship movie ship,
,0.0,0.0,,,,Jersey Shore ' house,
NYC,40.7127837,-74.0059413,"New York, NY, USA",Julio_Skillet ppl I ppl,,,
,0.0,0.0,,Bruce Springsteen Christina Aguilera Bon Jovi Billy Joel Sting mlauer,NBCNews,,
,0.0,0.0,,,weatherchannel,,Before and After Aerial Images of Sandy 's Damage http://t.co/vJYd7ejR http://t.co/3zibhh3a
,0.0,0.0,,NYGovCuomo,,alternative polling sites Some schools shelters,
,0.0,0.0,,your,CNNMoney,,your car
New York 's Staten Island,40.5795317,-74.1502007,"Staten Island, NY, USA",,GMA TwitPic,tanker,Photo
New York 's Staten Island,40.5605312,-74.1474846,"Staten Island, NY, USA",,GMA TwitPic,tanker,Photo
New York 's Staten Island,40.58343790000001,-74.1495875,"Staten Island, Staten Island, NY 10314, USA",,GMA TwitPic,tanker,Photo
,0.0,0.0,,,DumboNYC,,A collection of Instagrams of # Sandy in # DUMBO
,0.0,0.0,,,US,,
,0.0,0.0,,I my,,,
,0.0,0.0,,statusquomustgo,Daily Kos Occupy Sandy dailykos,,
Vt,0.0,0.0,"Vermont, USA",,,,
,0.0,0.0,,I,,,
,0.0,0.0,,we,,,
New York,40.7127837,-74.0059413,"New York, NY, USA",New York Mayor Bloomberg Obama,BreakingNews nytimes,,
,0.0,0.0,,forecasters who accurately predicted Sandy ’s path nearly a week before it hit,,,
159  53 102nd st Howard beach ny 11414,40.6588878,-73.8309416,"159-53 102nd Street, Howard Beach, NY 11414, USA",LOrain90 CarolineManzo Senator Joe Addabbo,,,
,0.0,0.0,,people,conversationagent,,
,0.0,0.0,,,Verizon Telecom giant Verizon Communications,,
Arlington,38.8799697,-77.1067698,"Arlington, VA, USA",,,Construction site in Arlington,
Arlington,42.4153925,-71.1564729,"Arlington, MA, USA",,,Construction site in Arlington,
Margaretville Prattsville Windham,43.810556,-70.416944,"Windham, ME, USA",,Kingston Daily Freeman,,
Margaretville Prattsville Windham,42.8006441,-71.30422899999999,"Windham, NH, USA",,Kingston Daily Freeman,,
Margaretville Prattsville Windham,41.6998208,-72.1570219,"Windham, CT, USA",,Kingston Daily Freeman,,
Margaretville Prattsville Windham,42.3073065,-74.2520875,"Windham, NY 12496, USA",,Kingston Daily Freeman,,
,0.0,0.0,,commuters,Newsday,,
,0.0,0.0,,Cares Equity,,,"$ 250,000"
,0.0,0.0,,Knicks Nets My Boys,,,
,0.0,0.0,,,Weather Channel,,
,0.0,0.0,,The Internet,,,
,0.0,0.0,,,Management Today,,
,0.0,0.0,,President @ BarackObama,American @ RedCross,the American @ RedCross Digital Command Center,
,0.0,0.0,,,,,
Caribbean and USA,27.3048879,-80.29689019999999,"West Caribbean, Port Saint Lucie, FL 34952, USA",Secretary  General,,,
Caribbean and USA,27.304103,-80.28983629999999,"East Caribbean, Port Saint Lucie, FL 34952, USA",Secretary  General,,,
Caribbean and USA,25.5798221,-80.36851949999999,"Caribbean Boulevard, Florida, USA",Secretary  General,,,
Caribbean and USA,26.713122,-81.733435,"Caribbean Boulevard, Fort Myers, FL 33905, USA",Secretary  General,,,
Caribbean and USA,31.5522513,-82.50843479999999,"Caribbean Road, Alma, GA 31510, USA",Secretary  General,,,
Caribbean and USA,26.763671,-80.1163728,"Caribbean Boulevard, West Palm Beach, FL 33407, USA",Secretary  General,,,
Caribbean and USA,29.8036727,-81.9512457,"Caribbean Circle, Keystone Heights, FL 32656, USA",Secretary  General,,,
Caribbean and USA,26.2151874,-81.7965597,"Caribbean Road, Naples, FL, USA",Secretary  General,,,
Caribbean and USA,30.368772,-87.354728,"Caribbean Drive, Pensacola, FL 32506, USA",Secretary  General,,,
Caribbean and USA,27.2455124,-82.51631619999999,"Caribbean Drive, Sarasota, FL 34231, USA",Secretary  General,,,
Caribbean and USA,36.8327631,-75.9819491,"Caribbean Avenue, Virginia Beach, VA, USA",Secretary  General,,,
Caribbean and USA,36.8327631,-75.9819491,"Caribbean Avenue, Virginia Beach, VA, USA",Secretary  General,,,
Caribbean and USA,25.092582,-80.4369558,"Caribbean Drive, Key Largo, FL 33037, USA",Secretary  General,,,
Caribbean and USA,30.483186,-86.420439,"Caribbean Way, Niceville, FL 32578, USA",Secretary  General,,,
Caribbean and USA,26.7576889,-80.9470896,"Caribbean Avenue, Clewiston, FL 33440, USA",Secretary  General,,,
Caribbean and USA,28.1647728,-80.6010143,"Caribbean Road, Satellite Beach, FL 32937, USA",Secretary  General,,,
San Francisco,0.0,0.0,"San Francisco, CA, USA",sethbannon San Francisco friends,,,iOS 6 maps
,0.0,0.0,,,ProPublica,Hospitals,
,0.0,0.0,,joshrogin,,the Statue of Liberty,Best # Sandy pic yet
"DISTRICT OF COLUMBIA , MASSACHUSETTS",38.8746089,-76.9529378,"Massachusetts Avenue Southeast, Washington, DC 20019, USA",OBAMA,,,"HURRICANE # SANDY EMERGENCY DECLARATION FOR DISTRICT OF COLUMBIA , MASSACHUSETTS"
"DISTRICT OF COLUMBIA , MASSACHUSETTS",38.8940808,-77.0005774,"Massachusetts Avenue Northeast, Washington, DC, USA",OBAMA,,,"HURRICANE # SANDY EMERGENCY DECLARATION FOR DISTRICT OF COLUMBIA , MASSACHUSETTS"
"DISTRICT OF COLUMBIA , MASSACHUSETTS",38.8869514,-76.9832297,"Massachusetts Avenue Southeast, Washington, DC 20003, USA",OBAMA,,,"HURRICANE # SANDY EMERGENCY DECLARATION FOR DISTRICT OF COLUMBIA , MASSACHUSETTS"
"DISTRICT OF COLUMBIA , MASSACHUSETTS",38.9560436,-77.1061234,"American University, Massachusetts Avenue, Washington, DC 20016, USA",OBAMA,,,"HURRICANE # SANDY EMERGENCY DECLARATION FOR DISTRICT OF COLUMBIA , MASSACHUSETTS"
"DISTRICT OF COLUMBIA , MASSACHUSETTS",38.9793322,-77.1422754,"Massachusetts Avenue, Bethesda, MD 20817, USA",OBAMA,,,"HURRICANE # SANDY EMERGENCY DECLARATION FOR DISTRICT OF COLUMBIA , MASSACHUSETTS"
"DISTRICT OF COLUMBIA , MASSACHUSETTS",38.9793322,-77.1422754,"Massachusetts Avenue, Bethesda, MD 20817, USA",OBAMA,,,"HURRICANE # SANDY EMERGENCY DECLARATION FOR DISTRICT OF COLUMBIA , MASSACHUSETTS"
"DISTRICT OF COLUMBIA , MASSACHUSETTS",38.8959127,-77.0096058,"Commonwealth of Massachusetts, 444 North Capitol Street Northwest, Washington, DC 20001, USA",OBAMA,,,"HURRICANE # SANDY EMERGENCY DECLARATION FOR DISTRICT OF COLUMBIA , MASSACHUSETTS"
Haiti Jamaica,19.4061504,-99.15109299999999,"Haití, Buenos Aires, Cuauhtémoc, 06780 Ciudad de México, D.F., Mexico","Haiti , Jamaica officials Haiti , Jamaica officials",Businessweek GlobalPost,,
,0.0,0.0,,RunwayChef I,,either one,
,0.0,0.0,,,,,
NY Toronto west M ' sga New York,40.7127837,-74.0059413,"New York, NY, USA",NY friends we,CdnPress,,
,0.0,0.0,,my me,,my neighbors house,
,0.0,0.0,,,KonceptBlog American State,,
C,0.0,0.0,"C, BKC Road, Bandra Kurla Complex, Bandra East, Mumbai, Maharashtra 400051, India",,,39th street pier on lakeshore drive,
,0.0,0.0,,,GramercyOne gramercy1,,
,0.0,0.0,,,WFSBnews Hard  hit Old Lyme,,
,0.0,0.0,,,,,
,0.0,0.0,,,Palm Beach Post,,blog
,0.0,0.0,,,,48 Isabella st,
,0.0,0.0,,,Google,,
,0.0,0.0,,,,Navy Yard & amp ; all MSC buildings,
,0.0,0.0,,Mamdani him,Columbia University,International Affairs Building,
,0.0,0.0,,Many Affected by Sandy,WSJ,,
,0.0,0.0,,Hybrid taxi drivers,,,
,0.0,0.0,,,CBS News,,
,0.0,0.0,,Rosenberg_Mike I,,,
NYC Brooklyn & amp ; Queens,40.6781784,-73.9441579,"Brooklyn, NY, USA",,HVNews HVInsider HudsonValleyWx,,
NYC Brooklyn & amp ; Queens,40.75,-73.86666699999999,"Queens, NY, USA",,HVNews HVInsider HudsonValleyWx,,
NYC Brooklyn & amp ; Queens,40.7127837,-74.0059413,"New York, NY, USA",,HVNews HVInsider HudsonValleyWx,,
,0.0,0.0,,SgtAndyNorris,,,Fake Photos
,0.0,0.0,,LeeGoldbergABC7 JeffSmithABC7 You guys you,,,
,0.0,0.0,,,NCCI Holdings Inc,,
,0.0,0.0,,,,,
,0.0,0.0,,"AntDeRosa every nurse , doctor , cop , fire fighter , emergency services worker out there tonight you",,,
,0.0,0.0,,Sandy Victims,InsideCityHall Board Of Elections,Polling Sites For Sandy Victims,
,0.0,0.0,,em_foley gabearchambault We,,,
,0.0,0.0,,,the Weather Channel,,sandy photos more from the Weather Channel
,0.0,0.0,,,DashBurst Instagram a major social media player,,
NYC,40.7127837,-74.0059413,"New York, NY, USA",friend in NYC,,stores restaurants,no gas no trucks
usa,0.0,0.0,United States,,,,
,0.0,0.0,,andrewsiff4NY,,,
Northwest DC,0.0,0.0,"District of Columbia, USA",SunniAndTheCity,,,
NY,40.7127837,-74.0059413,"New York, NY, USA",AngieZawada,,,an amazing shot of NY today w / the Frankenstorm bearing down
Colorado,0.0,0.0,"Colorado, USA",cakes5757,,Colorado library,
,0.0,0.0,,i,,,
,0.0,0.0,,Individuals,Companies Numerous companies,,Superstorm  Relief Donations From Companies and Individuals million  dollar gifts
,0.0,0.0,,Open Government Data Nerds,OperationArmy,,Hurricane Maps
,0.0,0.0,,,,,
,0.0,0.0,,PiersTonight We,CNN,,
,0.0,0.0,,,,,
,0.0,0.0,,,,,
,0.0,0.0,,the victims of Hurricane Agnes,Congress,,
NYC,40.7127837,-74.0059413,"New York, NY, USA",,chicagonews24,,
,0.0,0.0,,zeniusboy we,,,
,0.0,0.0,,,Cnet Breaking NewsNe,,NASA satellite a 3D view of Sandy 's eye
,0.0,0.0,,,Google Penguin / Random House Honda,,
Missouri,0.0,0.0,"Missouri, USA",wendywild Everyone From Missouri,,,
WeatherNerd blog,0.0,0.0,,instapundit,PJMedia_com,,
,0.0,0.0,,,scoopit AirCargoToday,,
,0.0,0.0,,amodelanonymous,,,
,0.0,0.0,,Oktavia NewYorkers hackers New Yorkers nancyrubin,,,
,0.0,0.0,,,HuffingtonPost,,
,0.0,0.0,,terry_mcfly,,,
NJ the Northeast Corridor,26.6347438,-80.0551162,"North J Terrace, Lake Worth, FL 33460, USA",,NJ Transit,,
Manhattan Greenwich Village,40.7335719,-74.0027418,"Greenwich Village, New York, NY, USA",,,Seventh Avenue in Greenwich Village,The view down Seventh Avenue in Greenwich Village
,0.0,0.0,,deeptigarg,,,PICS
,0.0,0.0,,Seventh  grader Samantha Bertolino her,,,
,0.0,0.0,,,CBSPhilly,,PHOTOS
,0.0,0.0,,RippDemUp,Red Cross,,
Maryland,39.0457549,-76.64127119999999,"Maryland, USA",,,Bay Bridge in Maryland,
NYC,40.7127837,-74.0059413,"New York, NY, USA",,TIME TIMENewsfeed,,Stunning time  lapse video
,0.0,0.0,,,Google,,Maps
Raritan Township,40.5041636,-74.89749250000001,"Raritan Township, NJ, USA",Workman,,vehicle,
NYC,40.7127837,-74.0059413,"New York, NY, USA",Staten Island Hotel Owner Sandy Victims,,NYC Marathon Runners ′ Rooms,
Shark river inlet,0.0,0.0,"Shark River Inlet, New Jersey, USA",crazy boater,,,Raw Footage
,0.0,0.0,,anyone who saw CNN 's output on # sandy,,,
,0.0,0.0,,,,,Amazing photo
,0.0,0.0,,"NFL , players",NFL Red Cross USA TODAY The Star  Ledger,,$ 1 million
,0.0,0.0,,,Anheuser  Busch RedCross,,1million cans of water
"Milford , CT",41.2306979,-73.064036,"Milford, CT, USA",,LBINow,,
,0.0,0.0,,Letterman Fallon,,,
,0.0,0.0,,Harlem girls,,,money
Lower Manhattan,40.7230084,-74.00063279999999,"Lower Manhattan, New York, NY, USA",,todayshow,,Story
,0.0,0.0,,TheBrooklynLife,,the subways,
,0.0,0.0,,,accountingweb Accounting Firms,,
,0.0,0.0,,you us,Sound_WaveRadio,,
,0.0,0.0,,,Generation404,,
,0.0,0.0,,,,broken crane 57th streets,
,0.0,0.0,,,GovDelivery,,
,0.0,0.0,,Commuters,,,
,0.0,0.0,,,nprnews Insurance Companies,,
NYC,40.7127837,-74.0059413,"New York, NY, USA",,,Crowded Trains,
,0.0,0.0,,AdoTheMomalog letters_of_muse fotofriendlymom lisacng,,,power
,0.0,0.0,,maddow Romney he,,,bus buses
,0.0,0.0,,Baan cungss,,,Camera Baan 's iconic shot of NYC skyline po
,0.0,0.0,,,FortuneMagazine,,
,0.0,0.0,,CraigLayne,DEP,,
,0.0,0.0,,President Obama,,,PHOTOS
,0.0,0.0,,chucktodd cookpolitical adamsmithtimes larrysabato bookernbc4,,,
,0.0,0.0,,,,,
,0.0,0.0,,,,Kennedy Store,
,0.0,0.0,,TheBabyGuyNYC howtobeadad you guys,,hurricanesandy donation centers,this list of # hurricanesandy donation centers
,0.0,0.0,,,mashable,,This Is the Apocalypse ' Video
,0.0,0.0,,,,parking garages Lutheran Medical Center,
,0.0,0.0,,,The # Time # Magazine Instagram,,
,0.0,0.0,,Sandy victims,HomeAdvisor CAS contractors offering services to # Sandy victims,,
,0.0,0.0,,officials,,,
,0.0,0.0,,2  And  Brothers Lost During Sandy,,,
,0.0,0.0,,HeresParkSlope John Jay,armory,,
Soho,40.723301,-74.0029883,"SoHo, New York, NY, USA",Gallerist_NY,,Soho 's expanded @ drawingcenter,
brooklyn,40.6781784,-73.9441579,"Brooklyn, NY, USA",,,brooklyn electric,
,0.0,0.0,,,,Roads,
,0.0,0.0,,MemoRex I we,,,
,0.0,0.0,,Annabelleyyy I We,,,
,0.0,0.0,,we,,,
whistler,0.0,0.0,"Whistler, BC V0N, Canada",doglotion,,,
New York,40.7127837,-74.0059413,"New York, NY, USA",,New York 's Silicon Alley,,
,0.0,0.0,,Ala . volunteer utility crew you,New Jersey town,,
,0.0,0.0,,,,power lines,
NYC,40.7127837,-74.0059413,"New York, NY, USA",,CBSThisMorning AP,,Photo
,0.0,0.0,,Deadspin Shirtless horse  masked jogger,,,
,0.0,0.0,,,,,
,0.0,0.0,,uestlove Ben Gibbard Okkervil River Black Lips,,,Money for Hurricane Relief
,0.0,0.0,,Thirsty Midtown Caffeine Addicts,,Last Starbucks Standing During Hurricane Sandy,
New York,40.7127837,-74.0059413,"New York, NY, USA",,ahramonline,,PHOTO GALLERY
,0.0,0.0,,,,,
,0.0,0.0,,NY NY,,,
,0.0,0.0,,,downtownexpress,,
,0.0,0.0,,iamsuperbianca Ms Bianca you,,,
CT,41.6032207,-73.087749,"Connecticut, USA",Gov . Malloy,GovMalloyOffice Insurers,,
,0.0,0.0,,Alvin691 glennbeck the 9  12ers,mercury1charity,,
,0.0,0.0,,Cyn_Santana,,,
,0.0,0.0,,ISurvivedVW EVERYONE,,,
,0.0,0.0,,People,,,there phones and computers
,0.0,0.0,,Jessica Ospina,,Port Authority tunnels,
,0.0,0.0,,RyanSeacrest I 2 different couples on roofs making out during the hurricane last night,,,
,0.0,0.0,,NJOEM2010,Christie Administration 65 Businesses,,
,0.0,0.0,,Kim Kardashian,HuffingtonPost,,
,0.0,0.0,,AliVelshi,,,
the BBC news channel,0.0,0.0,,IRDR Prof David Alexander,,,
Staten Island,40.5795317,-74.1502007,"Staten Island, NY, USA",Mother ’s Two Sons She Staten Island Neighbors,,,
A dark lower Manhattan A near  empty Times Square,40.758895,-73.985131,"Times Square, Manhattan, NY 10036, USA",,,,Memorable photos from # Sandy
A dark lower Manhattan A near  empty Times Square,40.759011,-73.9844722,"Theater District, New York, NY, USA",,,,Memorable photos from # Sandy
10 States,43.4166287,-73.9854867,"10 States Road, Stony Creek, NY 12878, USA",,FCC TechCrunch,25 % Of Cell Towers In 10 States,
10 States,39.0148828,-74.9353294,"10 States Avenue, Villas, NJ 08251, USA",,FCC TechCrunch,25 % Of Cell Towers In 10 States,
10 States,34.07655099999999,-84.788156,"10 States Avenue, Dallas, GA 30132, USA",,FCC TechCrunch,25 % Of Cell Towers In 10 States,
10 States,43.7300716,-71.35760590000001,"10 States Landing Road, Moultonborough, NH 03254, USA",,FCC TechCrunch,25 % Of Cell Towers In 10 States,
10 States,42.365178,-71.063127,"US Department of State, 10 Causeway Street, Boston, MA 02222, USA",,FCC TechCrunch,25 % Of Cell Towers In 10 States,
10 States,33.7815552,-84.38733239999999,"US Department of State, 10 10th Street Northwest #165, Atlanta, GA 30309, USA",,FCC TechCrunch,25 % Of Cell Towers In 10 States,
10 States,42.4168667,-71.15552100000001,"US Post Office, 10 Court Street, Arlington, MA 02476, USA",,FCC TechCrunch,25 % Of Cell Towers In 10 States,
10 States,39.8067643,-74.9672707,"10 United States Avenue, Lindenwold, NJ 08021, USA",,FCC TechCrunch,25 % Of Cell Towers In 10 States,
10 States,40.0661778,-74.8749684,"10 States Avenue, Burlington, NJ 08016, USA",,FCC TechCrunch,25 % Of Cell Towers In 10 States,
,0.0,0.0,,everyone dealing with Sandy,,,floatation devices
New Jersey,0.0,0.0,"New Jersey, USA",zite,,,
,0.0,0.0,,alimignone you and Mike you both,,,
,0.0,0.0,,Reporters,YahooNews,,
NY City,40.7127837,-74.0059413,"New York, NY, USA",Dr @ healthcarewen nytjim paulinechen,nytimeshealth nytimeshealth,,
,0.0,0.0,,,Mashable NASA,,NASA Satellite VIDEO
Atlantic coast NYC,41.48659660000001,-74.092638,"Atlantic Coast Driver Training, Inc., Stewart International Airport (SWF), 1008 Little Britain Road, New Windsor, NY 12553, USA",,,,
throughout East Coast,0.0,0.0,,,,,Pictures
"Long Beach , N.Y",40.5884373,-73.65790799999999,"Long Beach, NY, USA",These people,,,
,0.0,0.0,,bananacbr,,,
,0.0,0.0,,,,,
,0.0,0.0,,Oosthuizen We,,,
Baltimore,39.2903848,-76.6121893,"Baltimore, MD, USA",,,,
Staten Island the Lower Ninth Ward of Sandy,40.5795317,-74.1502007,"Staten Island, NY, USA",katekilla,,,
,0.0,0.0,,,Anheuser  Busch,,Water
"WALLACE , NC",34.735724,-77.99526279999999,"Wallace, NC, USA",livelifeLOUD_11,,,
,0.0,0.0,,YimYim007,,,
,0.0,0.0,,all of u guys KathyWakile richardwakile RosiePierri,,,
,0.0,0.0,,,,,
,0.0,0.0,,ClydeHaberman marathoners ballplayers,,,
US,0.0,0.0,United States,bi_contributors,,US Infrastructure,
,0.0,0.0,,,katieshow they,,
,0.0,0.0,,,,,
,0.0,0.0,,FrankieEff,,,
,0.0,0.0,,Man,,,
Staten Island,40.5795317,-74.1502007,"Staten Island, NY, USA",,,Staten Island ferry port,
,0.0,0.0,,,,,
New York,40.7127837,-74.0059413,"New York, NY, USA",New York 's techiest,city upstartbusiness,,
N.J Several towns in New Jersey,0.0,0.0,"New Jersey, USA",Sandy Victims,WebProNews,,
NJ Town Seaside Heights,39.944285,-74.0729139,"Seaside Heights, NJ, USA",,Occupied_Air,,
,0.0,0.0,,air travelers,,,
,0.0,0.0,,Giuliani,,,
East Coast Sandy  Battered Northeast,0.0,0.0,,,Anonymous_Newz,,
NYC NYC,40.7127837,-74.0059413,"New York, NY, USA",NYC residents NYC Councilmember @ JulissaFerreras,,,
photo site,48.83722150000001,2.3536464,"GOBELINS, l'école de l'image, 73 Boulevard Saint-Marcel, 75013 Paris, France",,Mail Online,,photo
,0.0,0.0,,DreStacks1oh7 xoDEECole you you,,,
,0.0,0.0,,Drivers,ABC,Road,
NYC,40.7127837,-74.0059413,"New York, NY, USA",NYC Mayor babies conceived during this monster storm,,,
,0.0,0.0,,Matt Lauer the people it 's for,,,
,0.0,0.0,,jstanley54 corybooker My follower of the week,,,
Sandy affected areas,0.0,0.0,,Our presidents,,,the money
,0.0,0.0,,,Feds,,
,0.0,0.0,,ansonmount 5 Workers,YahooFinance,,
,0.0,0.0,,bigboyv86 I,,,
NYC,40.7127837,-74.0059413,"New York, NY, USA",,AP,First NYC subway train tunnels,
the # outofservice blog,0.0,0.0,,Sandy survivors,ahumanright,,
which states,0.0,0.0,,,HuffingtonPost,,
,0.0,0.0,,I me,,,
Red Hook,40.6772802,-74.0094471,"Red Hook, Brooklyn, NY, USA",Gothamist Sandy Volunteer In Red Hook,,,
Red Hook,41.9950919,-73.87541139999999,"Red Hook, NY 12571, USA",Gothamist Sandy Volunteer In Red Hook,,,
Massachusetts,42.4072107,-71.3824374,"Massachusetts, USA",Thousands,,,Massachusetts Power Outages MAP INFOGRAPHIC
,0.0,0.0,,tdotscott DJBlazeDC,,,
,0.0,0.0,,Lancebowski,NASA,,NASA space view http://t.co/RUSHLrr7
Toronto,0.0,0.0,"Toronto, PE C0A, Canada",Woman,postedtoronto,,
across NJ,39.94288,-75.119323,"Broadway Across from WRTC, Camden, NJ 08103, USA",GovChristie,BP,about 100 more stations,
across NJ,40.219322,-74.75420199999999,"Trenton Transit Center, Trenton, NJ 08609, USA",GovChristie,BP,about 100 more stations,
across NJ,40.747308,-74.17042,"Broad St Across from NJT Station, Newark, NJ 07102, USA",GovChristie,BP,about 100 more stations,
across NJ,39.35966,-74.43395100000001,"Across Atlantic Ave at Ohio Ave, Atlantic City, NJ 08401, USA",GovChristie,BP,about 100 more stations,
across NJ,40.4998839,-74.44673399999999,"Rutgers–New Brunswick, Path across Voorhees Mall, New Brunswick, NJ 08901, USA",GovChristie,BP,about 100 more stations,
across NJ,40.7260143,-74.30891700000001,"Bridge across Old Shorts Hills, Millburn, NJ 07078, USA",GovChristie,BP,about 100 more stations,
,0.0,0.0,,,thedailyjournal Post office south jersey,,
,0.0,0.0,,too much friends and family in harms way,,,
,0.0,0.0,,US Army Infantry soldiers,US Army,,
,0.0,0.0,,Roger Goodell Hurricane Sandy first responders,,MetLife Stadium ( Shutdown Corner,
,0.0,0.0,,,nytimes,,
New Jersey Coast,40.02774429999999,-74.10286339999999,"Coast Drive, Brick, NJ 08723, USA",,AmericaNews247,,
New Jersey Coast,39.7309089,-74.2859218,"Coast Avenue, Stafford Township, NJ 08050, USA",,AmericaNews247,,
New Jersey Coast,39.7296213,-74.1221097,"East Coast Avenue, Beach Haven, NJ 08008, USA",,AmericaNews247,,
New Jersey Coast,28.3706419,-82.6901881,"New Jersey Avenue, Hudson, FL 34667, USA",,AmericaNews247,,
New Jersey Coast,30.2363325,-85.6682041,"New Jersey Avenue, Lynn Haven, FL 32444, USA",,AmericaNews247,,
,0.0,0.0,,hitRECordJoe Louis CK,,,
StatenIsland,40.5795317,-74.1502007,"Staten Island, NY, USA",Five,D.A. 's office,StatenIsland stores,
New York,40.7127837,-74.0059413,"New York, NY, USA",my sister in New York she CHICAGO NYC,,,
NJ,0.0,0.0,"New Jersey, USA",GovChristie I NJ homeowners,insurance companies,,
,0.0,0.0,,,,,
,0.0,0.0,,,,,
,0.0,0.0,,,,,"BOXED DISASTER,EARTHQUAKE , TORNADO,HURRICANE,EMERGENCY KITS"
,0.0,0.0,,you,MyNews24,,See the pictures & gt;&gt ; GALLERY : Superstorm Sandy aftermath
,0.0,0.0,,your,,your Post  Sandy Voting Site,
,0.0,0.0,,,Geeks Without Bounds,,
"Beach Haven , their former hometown",39.5592848,-74.2431962,"Beach Haven, NJ, USA",Band members,AsburyParkPress,,
,0.0,0.0,,drdigipol David Koch,,,
Cape Town,0.0,0.0,"Cape Town, Cape Town, South Africa",doctorlouw Cape Town meteorologists,,,
,0.0,0.0,,EdwardTufte,,,
,0.0,0.0,,friends family,weatherchannel,,
New York,40.7127837,-74.0059413,"New York, NY, USA",,Silicon Alley The Verge New York 's internet industry,,diesel
NJ,0.0,0.0,"New Jersey, USA",BrennaSolberg VINNYGUADAGNINO,,,
around the block,0.0,0.0,"Around the Block Project, 25 University Avenue, Charlottetown, PE C1A, Canada",Tea_raw,,,
,0.0,0.0,,we,FortuneMagazine,,
between NY 27 to Merrick Road in Nassau County,0.0,0.0,"Nassau, The Bahamas",,nyvost,NY 135 S / B NY 27,
,0.0,0.0,,JeffBercovici,Forbes Time magazine Instagram,,
,0.0,0.0,,,ELLEmagazine,,
,0.0,0.0,,,,,
,0.0,0.0,,the man behind “ Is Twitter Wrong ?” who helped debunk fake pictures during Hurricane Sandy zite,,,
NC towns,34.9208214,-83.7199136,"Towns County, GA, USA",Friends,New Observer USA News,,
NC towns,34.2270902,-78.023744,"Towns Court, Leland, NC 28451, USA",Friends,New Observer USA News,,
NC towns,36.378365,-78.18656179999999,"Towns Lane, Warrenton, NC 27589, USA",Friends,New Observer USA News,,
,0.0,0.0,,,Reuters U.S . companies,,
,0.0,0.0,,,YahooFinance,,
,0.0,0.0,,,PreventionMag,,
,0.0,0.0,,They Jim Iyke he,The federal government,,
New # Sandy Food & amp ; Clothing Drive location 2300 Eastchester Rd,0.0,0.0,,amandaplasencia MikeFavetta,BronxProducer,Keller Williams Realty 2300 Eastchester Rd,
,0.0,0.0,,NYC,NYCTSubwayScoop,,
,0.0,0.0,,financialplanning Investors,,,
,0.0,0.0,,ParallelsMac you,,,7 iPhone Apps that could help you survive her
,0.0,0.0,,,,,
,0.0,0.0,,TUSK81 Fireman PrincessGwenie1,,,Photo
,0.0,0.0,,gsacidor everyone me your,CBSPhilly,,your # Sandy pics & amp ; videos
StatenIsland,40.5795317,-74.1502007,"Staten Island, NY, USA",JohnSchriffen,ABC,,an # NYPD helicopter Those
New York,40.7127837,-74.0059413,"New York, NY, USA",piersmorgan,,,
Battery Park,36.9965372,-76.5741199,"Battery Park, VA 23430, USA",,,Battery Park City Esplanade,
NY Jersey,40.6415171,-74.0867859,"Jersey Street, Staten Island, NY 10301, USA",DeeParker,,subways houses,
NY Jersey,40.7243694,-73.9958931,"Jersey Street, New York, NY 10012, USA",DeeParker,,subways houses,
NY Jersey,40.44318639999999,-74.1577756,"Jersey Avenue, Union Beach, NJ 07735, USA",DeeParker,,subways houses,
NY Jersey,40.6614742,-74.23431939999999,"Jersey Avenue, Elizabeth, NJ 07202, USA",DeeParker,,subways houses,
NY Jersey,40.7240718,-74.0457078,"Jersey Avenue, Jersey City, NJ, USA",DeeParker,,subways houses,
NY Jersey,40.5806684,-74.23043919999999,"Jersey Street, Carteret, NJ 07008, USA",DeeParker,,subways houses,
NY Jersey,40.4697002,-74.275651,"Jersey Street, South Amboy, NJ 08879, USA",DeeParker,,subways houses,
NY Jersey,40.6586041,-74.1976653,"East Jersey Street, Elizabeth, NJ, USA",DeeParker,,subways houses,
NY Jersey,40.66428639999999,-74.2202113,"West Jersey Street, Elizabeth, NJ, USA",DeeParker,,subways houses,
NY Jersey,44.3052213,-73.4438261,"Jersey Street, Essex, NY 12936, USA",DeeParker,,subways houses,
NY Jersey,42.3866258,-74.91332369999999,"Jersey Road, Meredith, NY, USA",DeeParker,,subways houses,
NY Jersey,44.693174,-75.482796,"Jersey Avenue, Ogdensburg, NY 13669, USA",DeeParker,,subways houses,
NY Jersey,42.9002628,-78.8895416,"Jersey Street, Buffalo, NY, USA",DeeParker,,subways houses,
NY Jersey,41.368723,-74.68795600000001,"Jersey Avenue, Port Jervis, NY 12771, USA",DeeParker,,subways houses,
NY Jersey,43.2560097,-77.17507140000001,"Jersey Road, Williamson, NY 14589, USA",DeeParker,,subways houses,
NY Jersey,44.2613987,-74.0069263,"Jersey Street, Lake Placid, NY 12946, USA",DeeParker,,subways houses,
NY Jersey,40.7358183,-73.38100659999999,"Jersey Street, West Babylon, NY 11704, USA",DeeParker,,subways houses,
NY Jersey,40.7722909,-73.539183,"Jersey Street, Hicksville, NY 11801, USA",DeeParker,,subways houses,
NY Jersey,43.161144,-77.5564192,"Jersey Street, Rochester, NY 14609, USA",DeeParker,,subways houses,
NY Jersey,42.9750463,-77.8492985,"Jersey Street, Caledonia, NY 14423, USA",DeeParker,,subways houses,
NY Jersey,40.770818,-73.317543,"Jersey Street, Deer Park, NY 11729, USA",DeeParker,,subways houses,
NY Jersey,43.1880071,-76.0387252,"Jersey Path, Cicero, NY 13039, USA",DeeParker,,subways houses,
NY Jersey,40.9393567,-72.9896554,"Jersey Avenue, Miller Place, NY 11764, USA",DeeParker,,subways houses,
NY Jersey,40.6587784,-74.1737671,"Jersey Gardens Boulevard, Elizabeth, NJ 07201, USA",DeeParker,,subways houses,
NY Jersey,41.5815419,-74.54804,"Jersey Road, Wurtsboro, NY 12790, USA",DeeParker,,subways houses,
NY Jersey,40.939833,-73.106364,"South Jersey Avenue, Setauket- East Setauket, NY 11733, USA",DeeParker,,subways houses,
Rockaway Beach NYC,40.5867247,-73.8114993,"Rockaway Beach, Queens, NY 11693, USA",RyanRayder Buccigross,,,
,0.0,0.0,,you,FOX29philly,,
,0.0,0.0,,Bloomberg,Greenpeace,,
,0.0,0.0,,jeffgerstmann bradshoemaker,,,
US,0.0,0.0,United States,6 . 5m pple phoenixxe,,,phoenixxe 's photo
,0.0,0.0,,my,,my house,
Philadelphia,0.0,0.0,"Philadelphia, PA, USA",j_crucify you Philadelphia residents,PSPCA phillypaw,,
,0.0,0.0,,Chris Weidman,,Chris Weidman ’s house,
NYC,40.7127837,-74.0059413,"New York, NY, USA",,the atlantic,,amazing photos by the atlantic of # hurricanesandy in NYC
